NORAD_CAT_ID,OBJECT_NAME,OBJECT_TYPE,EPOCH,MEAN_MOTION,ECCENTRICITY,INCLINATION,RA_OF_ASC_NODE,ARG_OF_PERICENTER,MEAN_ANOMALY,BSTAR,MEAN_MOTION_DOT,MEAN_MOTION_DDOT,TLE_LINE0,TLE_LINE1,TLE_LINE2,SEMIMAJOR_AXIS,PERIOD,APOGEE,PERIGEE,DECAYED
53290.0,STARLINK-4149,PAYLOAD,2022-11-15 23:29:58,15.08829792,0.0001658,53.2187,214.7051,61.0543,299.0615,8.8882e-06,-1.47e-06,0.0,0 STARLINK-4149,1 53290U 22086BA  22319.97915412 -.00000147  00000-0  88882-5 0  9994,2 53290  53.2187 214.7051 0001658  61.0543 299.0615 15.08829792 18402,6917.9119999999975,95.438,540.924,538.63,0.0
53290.0,STARLINK-4149,PAYLOAD,2022-11-16 10:37:40,15.08840229,0.0001706,53.2189,212.6241,61.5452,298.5712,5.5969e-05,6.03e-06,0.0,0 STARLINK-4149,1 53290U 22086BA  22320.44282699  .00000603  00000-0  55969-4 0  9997,2 53290  53.2189 212.6241 0001706  61.5452 298.5712 15.08840229 18477,6917.88,95.438,540.925,538.564,0.0
53290.0,STARLINK-4149,PAYLOAD,2022-11-17 00:56:08,15.08838564,0.0001778,53.2192,209.949,55.8267,304.2894,-5.7416e-05,-1.202e-05,0.0,0 STARLINK-4149,1 53290U 22086BA  22321.03899216 -.00001202  00000-0 -57416-4 0  9999,2 53290  53.2192 209.9490 0001778  55.8267 304.2894 15.08838564 18560,6917.885,95.438,540.98,538.52,0.0
53290.0,STARLINK-4149,PAYLOAD,2022-11-17 20:00:45,15.08847614,0.0001798,53.2193,206.3802,63.7953,296.3224,0.00012504,1.703e-05,0.0,0 STARLINK-4149,1 53290U 22086BA  22321.83385749  .00001703  00000-0  12504-3 0  9990,2 53290  53.2193 206.3802 0001798  63.7953 296.3224 15.08847614 18688,6917.857,95.437,540.966,538.4780000000002,0.0
53290.0,STARLINK-4149,PAYLOAD,2022-11-17 23:11:31,15.08844172,0.0001685,53.22,205.7842,53.1017,307.0129,5.8827e-05,6.48e-06,0.0,0 STARLINK-4149,1 53290U 22086BA  22321.96634128  .00000648  00000-0  58827-4 0  9998,2 53290  53.2200 205.7842 0001685  53.1017 307.0129 15.08844172 18706,6917.868,95.437,540.898,538.567,0.0
53290.0,STARLINK-4149,PAYLOAD,2022-11-19 02:13:06,15.08834488,0.000234,53.2192,200.7297,41.6365,318.4805,8.3811e-06,-1.55e-06,0.0,0 STARLINK-4149,1 53290U 22086BA  22323.09243106 -.00000155  00000-0  83811-5 0  9992,2 53290  53.2192 200.7297 0002340  41.6365 318.4805 15.08834488 18876,6917.897,95.438,541.381,538.143,0.0
53290.0,STARLINK-4149,PAYLOAD,2022-11-20 00:28:29,15.08850768,0.0001496999999999,53.2175,196.5657,54.3448,305.7683,-0.00019784,-3.436e-05,0.0,0 STARLINK-4149,1 53290U 22086BA  22324.01978537 -.00003436  00000-0 -19784-3 0  9990,2 53290  53.2175 196.5657 0001497  54.3448 305.7683 15.08850768 19013,6917.847,95.437,540.748,538.677,0.0
53290.0,STARLINK-4149,PAYLOAD,2022-11-20 21:08:30,15.08830671,0.0001691,53.2182,192.7019,62.4462,297.6702,5.4964e-05,5.87e-06,0.0,0 STARLINK-4149,1 53290U 22086BA  22324.88091171  .00000587  00000-0  54964-4 0  9997,2 53290  53.2182 192.7019 0001691  62.4462 297.6702 15.08830671 19149,6917.909000000002,95.438,540.944,538.604,0.0
53290.0,STARLINK-4149,PAYLOAD,2022-11-21 08:16:12,15.08831147,0.00016,53.2179,190.6198,66.2117,293.9043,1.5789e-05,-3.7e-07,0.0,0 STARLINK-4149,1 53290U 22086BA  22325.34459464 -.00000037  00000-0  15789-4 0  9995,2 53290  53.2179 190.6198 0001600  66.2117 293.9043 15.08831147 19370,6917.906999999997,95.438,540.879,538.6659999999998,0.0
53290.0,STARLINK-4149,PAYLOAD,2022-11-21 16:13:09,15.08824384,0.0001789,53.218,189.1332,63.0986,297.0188,5.8369000000000025e-06,-1.95e-06,0.0,0 STARLINK-4149,1 53290U 22086BA  22325.67580061 -.00000195  00000-0  58369-5 0  9996,2 53290  53.2180 189.1332 0001789  63.0986 297.0188 15.08824384 19260,6917.928000000001,95.439,541.031,538.556,0.0
53290.0,STARLINK-4149,PAYLOAD,2022-11-21 19:23:55,15.08805527,0.0001879,53.2176,188.5383,62.1479,297.9704,0.00025213,3.723e-05,0.0,0 STARLINK-4149,1 53290U 22086BA  22325.80828085  .00003723  00000-0  25213-3 0  9991,2 53290  53.2176 188.5383 0001879  62.1479 297.9704 15.08805527 19442,6917.986,95.44,541.151,538.5509999999998,0.0
53290.0,STARLINK-4149,PAYLOAD,2022-11-22 08:07:00,15.08830708,0.000184,53.2182,186.16,62.2694,297.8485,4.590100000000001e-05,4.42e-06,0.0,0 STARLINK-4149,1 53290U 22086BA  22326.33820046  .00000442  00000-0  45901-4 0  9991,2 53290  53.2182 186.1600 0001840  62.2694 297.8485 15.08830708 19368,6917.909000000002,95.438,541.047,538.501,0.0
53290.0,STARLINK-4149,PAYLOAD,2022-11-22 17:39:18,15.08845263,0.0001786999999999,53.218,184.3755,60.712,299.4051,7.7022e-05,9.38e-06,0.0,0 STARLINK-4149,1 53290U 22086BA  22326.73563070  .00000938  00000-0  77022-4 0  9995,2 53290  53.2180 184.3755 0001787  60.7120 299.4051 15.08845263 19420,6917.864000000001,95.437,540.966,538.493,0.0
53290.0,STARLINK-4149,PAYLOAD,2022-11-22 20:50:04,15.08853893,0.0001969,53.2183,183.7825,59.8882,300.2305,0.00014827,2.073e-05,0.0,0 STARLINK-4149,1 53290U 22086BA  22326.86810266  .00002073  00000-0  14827-3 0  9996,2 53290  53.2183 183.7825 0001969  59.8882 300.2305 15.08853893 19601,6917.8380000000025,95.437,541.065,538.341,0.0
53290.0,STARLINK-4149,PAYLOAD,2022-11-23 01:36:13,15.08856986,0.0001886,53.2172,182.8884,60.4211,299.6969,0.0001708,2.432e-05,0.0,0 STARLINK-4149,1 53290U 22086BA  22327.06681780  .00002432  00000-0  17080-3 0  9999,2 53290  53.2172 182.8884 0001886  60.4211 299.6969 15.08856986 19474,6917.828,95.436,540.998,538.389,0.0
53290.0,STARLINK-4149,PAYLOAD,2022-11-23 07:57:46,15.0883798,0.0001638,53.2183,181.6994,61.4393,298.6763,2.225800000000001e-05,6.6e-07,0.0,0 STARLINK-4149,1 53290U 22086BA  22327.33179248  .00000066  00000-0  22258-4 0  9995,2 53290  53.2183 181.6994 0001638  61.4393 298.6763 15.08837980 19511,6917.887,95.438,540.885,538.618,0.0
53290.0,STARLINK-4149,PAYLOAD,2022-11-23 20:40:51,15.08835645,0.0001621,53.2184,179.3207,62.27,297.8457,6.3407e-05,7.21e-06,0.0,0 STARLINK-4149,1 53290U 22086BA  22327.86171290  .00000721  00000-0  63407-4 0  9991,2 53290  53.2184 179.3207 0001621  62.2700 297.8457 15.08835645 19759,6917.894,95.438,540.88,538.637,0.0
53290.0,STARLINK-4149,PAYLOAD,2022-11-24 01:27:01,15.0884084,0.0001584,53.2178,178.4278,63.786,296.3295,5.8867e-05,6.49e-06,0.0,0 STARLINK-4149,1 53290U 22086BA  22328.06042924  .00000649  00000-0  58867-4 0  9998,2 53290  53.2178 178.4278 0001584  63.7860 296.3295 15.08840840 19781,6917.878000000002,95.438,540.839,538.6469999999998,0.0
53290.0,STARLINK-4149,PAYLOAD,2022-11-24 17:20:52,15.08838685,0.0001594,53.2177,175.4532,67.5974,292.5187,-8.4463e-05,-1.632e-05,0.0,0 STARLINK-4149,1 53290U 22086BA  22328.72283474 -.00001632  00000-0 -84463-4 0  9994,2 53290  53.2177 175.4532 0001594  67.5974 292.5187 15.08838685 19725,6917.884,95.438,540.852,538.6469999999998,0.0
53290.0,STARLINK-4149,PAYLOAD,2022-11-25 01:17:48,15.08844384,0.0001649,53.2184,173.9672,79.0264,281.0913,-0.00021865,-3.767e-05,0.0,0 STARLINK-4149,1 53290U 22086BA  22329.05403586 -.00003767  00000-0 -21865-3 0  9996,2 53290  53.2184 173.9672 0001649  79.0264 281.0913 15.08844384 19938,6917.8669999999975,95.437,540.873,538.591,0.0
53290.0,STARLINK-4149,PAYLOAD,2022-11-25 20:22:26,15.08835314,0.0001564,53.2179,170.3995,66.1755,293.9401,-4.5367e-06,-3.6000000000000007e-06,0.0,0 STARLINK-4149,1 53290U 22086BA  22329.84891551 -.00000360  00000-0 -45367-5 0  9997,2 53290  53.2179 170.3995 0001564  66.1755 293.9401 15.08835314 20051,6917.895,95.438,540.842,538.678,0.0
53290.0,STARLINK-4149,PAYLOAD,2022-11-26 01:08:35,15.08838184,0.0001558,53.2178,169.5075,65.7012,294.4143,-1.7715999999999998e-05,-5.700000000000001e-06,0.0,0 STARLINK-4149,1 53290U 22086BA  22330.04763455 -.00000570  00000-0 -17716-4 0  9991,2 53290  53.2178 169.5075 0001558  65.7012 294.4143 15.08838184 19924,6917.886,95.438,540.8290000000002,538.673,0.0
53290.0,STARLINK-4149,PAYLOAD,2022-11-26 13:51:40,15.08837936,0.0001549,53.2179,167.1285,64.8102,295.3051,2.9706e-05,1.85e-06,0.0,0 STARLINK-4149,1 53290U 22086BA  22330.57755368  .00000185  00000-0  29706-4 0  9995,2 53290  53.2179 167.1285 0001549  64.8102 295.3051 15.08837936 20162,6917.887,95.438,540.823,538.68,0.0
53290.0,STARLINK-4149,PAYLOAD,2022-11-26 20:13:13,15.08836274,0.000156,53.2177,165.9392,65.2235,294.8919,8.5954e-05,1.0800000000000003e-05,0.0,0 STARLINK-4149,1 53290U 22086BA  22330.84251311  .00001080  00000-0  85954-4 0  9996,2 53290  53.2177 165.9392 0001560  65.2235 294.8919 15.08836274 20206,6917.892,95.438,540.836,538.678,0.0
53290.0,STARLINK-4149,PAYLOAD,2022-11-27 21:39:24,15.0882955,0.0001585,53.2175,161.1816,65.911,294.2048,-4.683100000000001e-05,-1.033e-05,0.0,0 STARLINK-4149,1 53290U 22086BA  22331.90236602 -.00001033  00000-0 -46831-4 0  9991,2 53290  53.2175 161.1816 0001585  65.9110 294.2048 15.08829550 20205,6917.9119999999975,95.438,540.874,538.681,0.0
53290.0,STARLINK-4149,PAYLOAD,2022-11-28 13:33:15,15.08832246,0.0001534,53.2176,158.2075,66.4646,293.6507,-3.2058000000000004e-05,-7.98e-06,0.0,0 STARLINK-4149,1 53290U 22086BA  22332.56476661 -.00000798  00000-0 -32058-4 0  9998,2 53290  53.2176 158.2075 0001534  66.4646 293.6507 15.08832246 20461,6917.904,95.438,540.83,538.7080000000002,0.0
53290.0,STARLINK-4149,PAYLOAD,2022-11-28 19:54:48,15.08834755,0.0001622,53.2178,157.0183,70.2198,289.8969,-2.6737e-05,-7.13e-06,0.0,0 STARLINK-4149,1 53290U 22086BA  22332.82972571 -.00000713  00000-0 -26737-4 0  9992,2 53290  53.2178 157.0183 0001622  70.2198 289.8969 15.08834755 20346,6917.896,95.438,540.884,538.639,0.0
53290.0,STARLINK-4149,PAYLOAD,2022-11-29 11:48:39,15.08831915,0.000152,53.2177,154.0446,66.06,294.0551,5.3962e-05,5.71e-06,0.0,0 STARLINK-4149,1 53290U 22086BA  22333.49212624  .00000571  00000-0  53962-4 0  9992,2 53290  53.2177 154.0446 0001520  66.0600 294.0551 15.08831915 20601,6917.905,95.438,540.822,538.719,0.0
53290.0,STARLINK-4149,PAYLOAD,2022-11-29 13:24:02,15.08832066,0.0001489,53.2178,153.7473,65.9134,294.2014,5.4988e-05,5.87e-06,0.0,0 STARLINK-4149,1 53290U 22086BA  22333.55836634  .00000587  00000-0  54988-4 0  9998,2 53290  53.2178 153.7473 0001489  65.9134 294.2014 15.08832066 20617,6917.905,95.438,540.8,538.74,0.0
